STARLINK-33905          
1 63881U 25094T   25176.30306873  .00022661  00000+0  51911-3 0  9993
2 63881  69.9998 180.0680 0004111 270.9342  89.1369 15.42721338  8432
STARLINK-34003          
1 63882U 25094U   25176.42464192  .00033039  00000+0  75450-3 0  9991
2 63882  69.9962 179.6900 0003244 277.2768  82.8045 15.42716278  8451
STARLINK-33968          
1 63883U 25094V   25176.27064835  .00027511  00000+0  62886-3 0  9992
2 63883  69.9997 179.9487 0003132 267.5166  92.5657 15.42735636  8437
STARLINK-33943          
1 63884U 25094W   25176.41654253  .00013423  00000+0  30928-3 0  9997
2 63884  69.9989 179.6587 0004808 296.3284  63.7403 15.42714961  8458
STARLINK-33858          
1 63885U 25094X   25176.58335648 -.00034860  00000+0 -79563-3 0  9998
2 63885  69.9994 179.1825 0003281 272.9493 316.3131 15.42733212  8478
STARLINK-33885          
1 63886U 25094Y   25176.58335648 -.00034229  00000+0 -78103-3 0  9997
2 63886  69.9993 179.1570 0003522 270.9876 340.2719 15.42735363  8260
STARLINK-33904          
1 63887U 25094Z   25176.27461196  .00029491  00000+0  67359-3 0  9996
2 63887  69.9924 179.9628 0002150 261.8761  98.2177 15.42743838  8326
STARLINK-33981          
1 63888U 25094AA  25175.29390886  .00018278  00000+0  41958-3 0  9993
2 63888  70.0001 182.5618 0004820 271.9414  88.1215 15.42719930  8088
STARLINK-33738          
1 63889U 25094AB  25176.45291816  .00022337  00000+0  51150-3 0  9992
2 63889  69.9992 179.3601 0003746 267.2242  92.8511 15.42737640  8320
STARLINK-34116          
1 63890U 25095A   25176.11765638  .00006341  00000+0  23971-3 0  9993
2 63890  42.9993 191.0135 0001561 275.1281  84.9392 15.27583608  8393
STARLINK-34123          
1 63891U 25095B   25176.39334236  .00013456  00000+0  49748-3 0  9995
2 63891  42.9933 189.6412 0000482   1.2824 358.8029 15.27587570  8438
STARLINK-34128          
1 63892U 25095C   25175.12143622  .00013724  00000+0  50709-3 0  9990
2 63892  42.9983 196.4311 0001485 251.9393 108.1297 15.27593871  8240
STARLINK-33972          
1 63893U 25095D   25176.10994586  .00005787  00000+0  21963-3 0  9993
2 63893  42.9984 190.9527 0001754 273.6843  86.3808 15.27582847  8392
STARLINK-33973          
1 63894U 25095E   25176.07397901  .00009924  00000+0  36974-3 0  9993
2 63894  42.9978 190.6749 0000970 295.3786  64.6965 15.27572986  8391
STARLINK-34119          
1 63895U 25095F   25176.38564690  .00006061  00000+0  22980-3 0  9990
2 63895  42.9993 189.5825 0001612 269.6579  90.4088 15.27550075  8443
STARLINK-34143          
1 63896U 25095G   25176.35992833  .00016148  00000+0  59411-3 0  9998
2 63896  42.9979 189.3841 0001700 244.9677 115.0998 15.27631973  8437
STARLINK-33957          
1 63897U 25095H   25175.73561884  .00009010  00000+0  33653-3 0  9998
2 63897  42.9970 193.3029 0001463 274.1493  85.9191 15.27580869  8324
STARLINK-34120          
1 63898U 25095J   25176.07012396  .00010068  00000+0  37484-3 0  9997
2 63898  42.9980 190.6444 0001386 291.8452  68.2252 15.27584397  8391
STARLINK-34134          
1 63899U 25095K   25176.04841190  .00011766  00000+0  43626-3 0  9998
2 63899  42.9989 191.3505 0002836 280.3810  79.6722 15.27589276  8387
STARLINK-34118          
1 63900U 25095L   25176.05485816  .00013292  00000+0  49149-3 0  9993
2 63900  42.9981 191.3993 0001426 281.4871  78.5820 15.27591537  8386
STARLINK-34125          
1 63901U 25095M   25176.10609129  .00010949  00000+0  40680-3 0  9992
2 63901  42.9993 190.9204 0001196 217.7491 142.3277 15.27581883  8383
STARLINK-33955          
1 63902U 25095N   25175.74960493  .00010318  00000+0  38393-3 0  9994
2 63902  42.9988 192.5401 0001477 278.5195  81.5489 15.27582420  8335
STARLINK-34097          
1 63903U 25095P   25176.09581147  .00013632  00000+0  50377-3 0  9997
2 63903  43.0021 190.8448 0002109 280.7212  79.3402 15.27593268  8383
STARLINK-34092          
1 63904U 25095Q   25176.05997898  .00011240  00000+0  41726-3 0  9999
2 63904  42.9978 191.4366 0001611 270.3484  89.7183 15.27587915  8374
STARLINK-34114          
1 63905U 25095R   25176.06768996  .00015255  00000+0  56253-3 0  9997
2 63905  42.9970 191.4951 0001135 284.8620  75.2106 15.27591277  8371
STARLINK-33770          
1 63906U 25095S   25175.75860205  .00011146  00000+0  41395-3 0  9995
2 63906  42.9988 192.6086 0001357 277.2977  82.7720 15.27579677  8331
STARLINK-34106          
1 63907U 25095T   25175.36242495  .00007402  00000+0  27830-3 0  9996
2 63907  42.9968 194.7931 0001240 288.5017  71.5700 15.27569710  8277
STARLINK-34083          
1 63908U 25095U   25176.32537856  .00011214  00000+0  41629-3 0  9990
2 63908  42.9999 189.9887 0001364 272.5822  87.4874 15.27589896  8413
STARLINK-34066          
1 63909U 25095V   25176.04970393  .00014868  00000+0  54867-3 0  9993
2 63909  42.9999 191.3564 0003744 277.4241  82.6185 15.27578659  8378
STARLINK-34071          
1 63910U 25095W   25176.16668981 -.00013202  00000+0 -47090-3 0  9998
2 63910  42.9980 190.7845 0001897 260.8271 347.9437 15.27591145  8384
STARLINK-34038          
1 63911U 25095X   25176.50002315  .00062319  00000+0  22574-2 0  9990
2 63911  42.9992 188.7153 0001669 272.6841  89.1870 15.27545863  8447
STARLINK-34031          
1 63912U 25095Y   25176.11122757  .00008135  00000+0  30473-3 0  9995
2 63912  42.9967 190.9566 0001559 243.5315 116.5376 15.27588906  8388
STARLINK-34070          
1 63913U 25095Z   25175.12272507  .00015186  00000+0  56018-3 0  9992
2 63913  42.9993 196.4384 0001413 256.4917 103.5777 15.27582826  8237
STARLINK-34068          
1 63914U 25095AA  25176.09324240  .00011349  00000+0  42116-3 0  9993
2 63914  43.0000 190.8212 0001598 280.8302  79.2370 15.27589926  8382
STARLINK-34076          
1 63915U 25095AB  25176.42659597  .00013907  00000+0  51363-3 0  9993
2 63915  43.0026 189.0286 0002509 297.9645  62.0952 15.27597932  8432
STARLINK-33910          
1 63916U 25095AC  25176.40474894  .00005855  00000+0  22212-3 0  9991
2 63916  42.9976 188.8529 0001543 273.5473  86.5202 15.27582150  8433
STARLINK-34075          
1 63917U 25095AD  25176.35092967  .00011094  00000+0  41187-3 0  9997
2 63917  42.9990 189.3120 0001643 297.8606  62.2079 15.27594071  8428
YAOGAN-40 02A           
1 63918U 25096A   25176.50443770  .00000084  00000+0  35542-4 0  9994
2 63918  85.9943 347.8805 0002309  96.3613 263.7833 14.12345994  6228
YAOGAN-40 02B           
1 63919U 25096B   25176.50461108  .00000120  00000+0  54859-4 0  9993
2 63919  85.9936 347.8777 0002017 103.3041 256.8367 14.12346357  6228
YAOGAN-40 02C           
1 63920U 25096C   25176.50364561  .00000200  00000+0  67781-4 0  9997
2 63920  85.9929 347.3495 0017014 139.9638 220.2813 14.31356646 25038
TJS-19                  
1 63924U 25097A   25175.93264116 -.00000273  00000+0  00000+0 0  9990
2 63924   3.9288 313.0296 0001487 188.1822 249.0442  1.00274547   566
STARLINK-34012          
1 63926U 25098A   25176.49521859  .00026900  00000+0  61489-3 0  9991
2 63926  69.9975 205.8776 0003635 268.7927  91.2839 15.42740834  7957
STARLINK-33956          
1 63927U 25098B   25176.13031700  .00026311  00000+0  60158-3 0  9992
2 63927  69.9982 206.6041 0002912 266.2273  93.8576 15.42741216  7854
STARLINK-33997          
1 63928U 25098C   25176.12005129  .00021882  00000+0  50129-3 0  9993
2 63928  70.0006 206.5667 0003101 266.0707  94.0121 15.42733824  7742
STARLINK-33989          
1 63929U 25098D   25176.48297444  .00034817  00000+0  79418-3 0  9990
2 63929  69.9962 205.8308 0003765 270.2101  89.8650 15.42735515  7902
STARLINK-33980          
1 63930U 25098E   25176.50314698  .00028696  00000+0  65568-3 0  9995
2 63930  69.9959 205.9049 0003663 270.9953  89.0809 15.42735016  7951
STARLINK-33994          
1 63931U 25098F   25176.48099151  .00035105  00000+0  80035-3 0  9996
2 63931  70.0002 205.8257 0004489 274.2276  85.8393 15.42745604  7693
STARLINK-33971          
1 63932U 25098G   25176.36968517  .00026531  00000+0  60654-3 0  9993
2 63932  70.0001 206.2417 0002887 266.2143  93.8709 15.42742415  7776
STARLINK-33877          
1 63933U 25098H   25176.12401299  .00021274  00000+0  48747-3 0  9995
2 63933  70.0020 206.5820 0004230 270.5286  89.5411 15.42730370  7644
STARLINK-33895          
1 63934U 25098J   25176.34103554  .00024347  00000+0  55670-3 0  9990
2 63934  69.9993 206.1379 0003561 268.0277  92.0497 15.42759558  7770
STARLINK-34005          
1 63935U 25098K   25176.11789011  .00020925  00000+0  47962-3 0  9997
2 63935  70.0035 206.5605 0003421 266.6345  93.4445 15.42729050  7910
STARLINK-34027          
1 63936U 25098L   25176.12635658  .00021969  00000+0  50336-3 0  9994
2 63936  69.9987 206.5891 0003322 269.8995  90.1806 15.42727750  7805
STARLINK-34035          
1 63937U 25098M   25176.47882992  .00022614  00000+0  51775-3 0  9994
2 63937  70.0055 205.8188 0004385 271.6414  88.4266 15.42737522  7913
STARLINK-33988          
1 63938U 25098N   25176.48513448  .00024265  00000+0  55527-3 0  9996
2 63938  69.9974 205.8383 0004175 272.9945  87.0759 15.42734137  7964
STARLINK-34020          
1 63939U 25098P   25176.07772707  .00011755  00000+0  27122-3 0  9997
2 63939  69.9994 206.8220 0005414 279.2059  80.8510 15.42724788  7902
STARLINK-34021          
1 63940U 25098Q   25176.12221401  .00029794  00000+0  68044-3 0  9995
2 63940  69.9989 206.5740 0002627 273.6119  86.4762 15.42742491  7867
STARLINK-34004          
1 63941U 25098R   25176.34140760  .00027124  00000+0  61999-3 0  9995
2 63941  69.9992 206.1363 0003113 267.4807  92.6019 15.42741241  7782
STARLINK-34014          
1 63942U 25098S   25176.47487124  .00021741  00000+0  49803-3 0  9997
2 63942  70.0014 205.8036 0003468 274.5690  85.5096 15.42735411  7863
STARLINK-33985          
1 63943U 25098T   25176.05233030  .00022178  00000+0  50811-3 0  9993
2 63943  69.9973 206.7284 0003281 259.7541 100.3271 15.42727404  7799
